[{"OBJECT_NAME":"IRIDIUM 33 DEB","OBJECT_ID":"1997-051BV","EPOCH":"2026-03-02T12:26:24.107712","MEAN_MOTION":14.89860452,"ECCENTRICITY":0.00025212,"INCLINATION":86.2485,"RA_OF_ASC_NODE":251.7487,"ARG_OF_PERICENTER":127.42,"MEAN_ANOMALY":261.1817,"EPHEMERIS_TYPE":0,"CLASSIFICATION_TYPE":"U","NORAD_CAT_ID":33960,"ELEMENT_SET_NO":999,"REV_AT_EPOCH":90053,"BSTAR":0.0029709567,"MEAN_MOTION_DOT":0.00028651,"MEAN_MOTION_DDOT":0},{"OBJECT_NAME":"IRIDIUM 33 DEB","OBJECT_ID":"1997-051CB","EPOCH":"2026-03-02T22:50:08.086272","MEAN_MOTION":14.50004774,"ECCENTRICITY":0.000569,"INCLINATION":86.3963,"RA_OF_ASC_NODE":11.5878,"ARG_OF_PERICENTER":311.0179,"MEAN_ANOMALY":90.754,"EPHEMERIS_TYPE":0,"CLASSIFICATION_TYPE":"U","NORAD_CAT_ID":33966,"ELEMENT_SET_NO":999,"REV_AT_EPOCH":89604,"BSTAR":0.00072072,"MEAN_MOTION_DOT":2.81e-5,"MEAN_MOTION_DDOT":0},{"OBJECT_NAME":"IRIDIUM 33 DEB","OBJECT_ID":"1997-051CE","EPOCH":"2026-03-03T03:24:51.937056","MEAN_MOTION":14.49962173,"ECCENTRICITY":0.0006441,"INCLINATION":86.3503,"RA_OF_ASC_NODE":342.8818,"ARG_OF_PERICENTER":183.9305,"MEAN_ANOMALY":176.185,"EPHEMERIS_TYPE":0,"CLASSIFICATION_TYPE":"U","NORAD_CAT_ID":34071,"ELEMENT_SET_NO":999,"REV_AT_EPOCH":89499,"BSTAR":0.00071027,"MEAN_MOTION_DOT":2.767e-5,"MEAN_MOTION_DDOT":0},{"OBJECT_NAME":"IRIDIUM 33 DEB","OBJECT_ID":"1997-051CL","EPOCH":"2026-03-02T22:13:28.812288","MEAN_MOTION":14.6646231,"ECCENTRICITY":0.0011938,"INCLINATION":86.3883,"RA_OF_ASC_NODE":16.1316,"ARG_OF_PERICENTER":103.752,"MEAN_ANOMALY":318.4863,"EPHEMERIS_TYPE":0,"CLASSIFICATION_TYPE":"U","NORAD_CAT_ID":34077,"ELEMENT_SET_NO":999,"REV_AT_EPOCH":89507,"BSTAR":0.0017803,"MEAN_MOTION_DOT":9.891e-5,"MEAN_MOTION_DDOT":0},{"OBJECT_NAME":"IRIDIUM 33 DEB","OBJECT_ID":"1997-051CN","EPOCH":"2026-03-03T04:01:36.571296","MEAN_MOTION":14.86800812,"ECCENTRICITY":0.0009858,"INCLINATION":86.3795,"RA_OF_ASC_NODE":332.0012,"ARG_OF_PERICENTER":61.999,"MEAN_ANOMALY":65.9981,"EPHEMERIS_TYPE":0,"CLASSIFICATION_TYPE":"U","NORAD_CAT_ID":34079,"ELEMENT_SET_NO":999,"REV_AT_EPOCH":90171,"BSTAR":0.0020669,"MEAN_MOTION_DOT":0.00018483,"MEAN_MOTION_DDOT":0},{"OBJECT_NAME":"IRIDIUM 33 DEB","OBJECT_ID":"1997-051CX","EPOCH":"2026-03-02T20:32:34.704672","MEAN_MOTION":14.97405767,"ECCENTRICITY":0.0002184,"INCLINATION":86.3872,"RA_OF_ASC_NODE":353.7513,"ARG_OF_PERICENTER":51.0925,"MEAN_ANOMALY":8.9915,"EPHEMERIS_TYPE":0,"CLASSIFICATION_TYPE":"U","NORAD_CAT_ID":34088,"ELEMENT_SET_NO":999,"REV_AT_EPOCH":89938,"BSTAR":0.00377,"MEAN_MOTION_DOT":0.00044068,"MEAN_MOTION_DDOT":0},{"OBJECT_NAME":"IRIDIUM 33 DEB","OBJECT_ID":"1997-051DA","EPOCH":"2026-03-02T21:02:44.730240","MEAN_MOTION":14.89021457,"ECCENTRICITY":0.003378,"INCLINATION":86.3434,"RA_OF_ASC_NODE":29.9254,"ARG_OF_PERICENTER":22.0184,"MEAN_ANOMALY":338.2484,"EPHEMERIS_TYPE":0,"CLASSIFICATION_TYPE":"U","NORAD_CAT_ID":34091,"ELEMENT_SET_NO":999,"REV_AT_EPOCH":89056,"BSTAR":0.0054804,"MEAN_MOTION_DOT":0.0005246,"MEAN_MOTION_DDOT":0},{"OBJECT_NAME":"IRIDIUM 33 DEB","OBJECT_ID":"1997-051DG","EPOCH":"2026-03-03T01:12:30.189888","MEAN_MOTION":14.35490237,"ECCENTRICITY":0.0083685,"INCLINATION":86.2024,"RA_OF_ASC_NODE":325.9527,"ARG_OF_PERICENTER":97.6617,"MEAN_ANOMALY":263.4093,"EPHEMERIS_TYPE":0,"CLASSIFICATION_TYPE":"U","NORAD_CAT_ID":34097,"ELEMENT_SET_NO":999,"REV_AT_EPOCH":88271,"BSTAR":0.0012688,"MEAN_MOTION_DOT":3.816e-5,"MEAN_MOTION_DDOT":0},{"OBJECT_NAME":"IRIDIUM 33 DEB","OBJECT_ID":"1997-051DY","EPOCH":"2026-03-02T15:33:51.295104","MEAN_MOTION":14.4304443,"ECCENTRICITY":0.0051626,"INCLINATION":86.2097,"RA_OF_ASC_NODE":296.9251,"ARG_OF_PERICENTER":188.6069,"MEAN_ANOMALY":171.4252,"EPHEMERIS_TYPE":0,"CLASSIFICATION_TYPE":"U","NORAD_CAT_ID":34145,"ELEMENT_SET_NO":999,"REV_AT_EPOCH":88790,"BSTAR":0.00090403,"MEAN_MOTION_DOT":3.097e-5,"MEAN_MOTION_DDOT":0},{"OBJECT_NAME":"IRIDIUM 33 DEB","OBJECT_ID":"1997-051DZ","EPOCH":"2026-03-03T03:19:48.037152","MEAN_MOTION":14.49696336,"ECCENTRICITY":0.0026171,"INCLINATION":86.2844,"RA_OF_ASC_NODE":314.2841,"ARG_OF_PERICENTER":322.5575,"MEAN_ANOMALY":191.0013,"EPHEMERIS_TYPE":0,"CLASSIFICATION_TYPE":"U","NORAD_CAT_ID":34146,"ELEMENT_SET_NO":999,"REV_AT_EPOCH":89271,"BSTAR":0.00073815,"MEAN_MOTION_DOT":2.871e-5,"MEAN_MOTION_DDOT":0},{"OBJECT_NAME":"IRIDIUM 33 DEB","OBJECT_ID":"1997-051EN","EPOCH":"2026-03-02T22:21:09.592128","MEAN_MOTION":14.38728602,"ECCENTRICITY":0.0029392,"INCLINATION":86.3543,"RA_OF_ASC_NODE":14.0372,"ARG_OF_PERICENTER":27.9383,"MEAN_ANOMALY":332.3386,"EPHEMERIS_TYPE":0,"CLASSIFICATION_TYPE":"U","NORAD_CAT_ID":34159,"ELEMENT_SET_NO":999,"REV_AT_EPOCH":89112,"BSTAR":0.00055846,"MEAN_MOTION_DOT":1.741e-5,"MEAN_MOTION_DDOT":0},{"OBJECT_NAME":"IRIDIUM 33 DEB","OBJECT_ID":"1997-051ES","EPOCH":"2026-03-03T04:41:36.466080","MEAN_MOTION":14.45673115,"ECCENTRICITY":0.0019069,"INCLINATION":86.3311,"RA_OF_ASC_NODE":327.9093,"ARG_OF_PERICENTER":229.3754,"MEAN_ANOMALY":289.0826,"EPHEMERIS_TYPE":0,"CLASSIFICATION_TYPE":"U","NORAD_CAT_ID":34350,"ELEMENT_SET_NO":999,"REV_AT_EPOCH":89455,"BSTAR":0.00038803,"MEAN_MOTION_DOT":1.395e-5,"MEAN_MOTION_DDOT":0},{"OBJECT_NAME":"IRIDIUM 33 DEB","OBJECT_ID":"1997-051FJ","EPOCH":"2026-03-02T21:29:10.508928","MEAN_MOTION":14.54923809,"ECCENTRICITY":0.0017709,"INCLINATION":86.3721,"RA_OF_ASC_NODE":14.4179,"ARG_OF_PERICENTER":228.3938,"MEAN_ANOMALY":190.5534,"EPHEMERIS_TYPE":0,"CLASSIFICATION_TYPE":"U","NORAD_CAT_ID":34366,"ELEMENT_SET_NO":999,"REV_AT_EPOCH":89347,"BSTAR":0.0014196,"MEAN_MOTION_DOT":6.135e-5,"MEAN_MOTION_DDOT":0},{"OBJECT_NAME":"IRIDIUM 33 DEB","OBJECT_ID":"1997-051FT","EPOCH":"2026-03-02T06:52:04.135872","MEAN_MOTION":14.1816219,"ECCENTRICITY":0.01006286,"INCLINATION":86.4353,"RA_OF_ASC_NODE":150.6609,"ARG_OF_PERICENTER":233.3626,"MEAN_ANOMALY":188.1539,"EPHEMERIS_TYPE":0,"CLASSIFICATION_TYPE":"U","NORAD_CAT_ID":34375,"ELEMENT_SET_NO":999,"REV_AT_EPOCH":87839,"BSTAR":0.00053504449,"MEAN_MOTION_DOT":1.172e-5,"MEAN_MOTION_DDOT":0},{"OBJECT_NAME":"IRIDIUM 33 DEB","OBJECT_ID":"1997-051FU","EPOCH":"2026-03-03T03:47:52.005984","MEAN_MOTION":14.64403201,"ECCENTRICITY":0.0022415,"INCLINATION":86.3005,"RA_OF_ASC_NODE":330.3457,"ARG_OF_PERICENTER":259.2929,"MEAN_ANOMALY":100.576,"EPHEMERIS_TYPE":0,"CLASSIFICATION_TYPE":"U","NORAD_CAT_ID":34376,"ELEMENT_SET_NO":999,"REV_AT_EPOCH":89183,"BSTAR":0.0018569,"MEAN_MOTION_DOT":9.878e-5,"MEAN_MOTION_DDOT":0},{"OBJECT_NAME":"IRIDIUM 33 DEB","OBJECT_ID":"1997-051GB","EPOCH":"2026-03-03T04:48:05.558112","MEAN_MOTION":15.01641796,"ECCENTRICITY":0.0008335,"INCLINATION":86.3956,"RA_OF_ASC_NODE":334.7293,"ARG_OF_PERICENTER":157.4487,"MEAN_ANOMALY":355.3173,"EPHEMERIS_TYPE":0,"CLASSIFICATION_TYPE":"U","NORAD_CAT_ID":34486,"ELEMENT_SET_NO":999,"REV_AT_EPOCH":90191,"BSTAR":0.0028089,"MEAN_MOTION_DOT":0.00036644,"MEAN_MOTION_DDOT":0}]
