IRIDIUM 33 DEB          
1 33960U 97051BV  26061.51833458  .00028651  00000+0  29710-2 0  9997
2 33960  86.2485 251.7487 0002521 127.4200 261.1817 14.89860452900536
IRIDIUM 33 DEB          
1 33966U 97051CB  26061.95148248  .00002810  00000+0  72072-3 0  9996
2 33966  86.3963  11.5878 0005690 311.0179  90.7540 14.50004774896040
IRIDIUM 33 DEB          
1 34071U 97051CE  26062.14226779  .00002767  00000+0  71027-3 0  9992
2 34071  86.3503 342.8818 0006441 183.9305 176.1850 14.49962173894993
IRIDIUM 33 DEB          
1 34077U 97051CL  26061.92602792  .00009891  00000+0  17803-2 0  9992
2 34077  86.3883  16.1316 0011938 103.7520 318.4863 14.66462310895072
IRIDIUM 33 DEB          
1 34079U 97051CN  26062.16778439  .00018483  00000+0  20669-2 0  9994
2 34079  86.3795 332.0012 0009858  61.9990  65.9981 14.86800812901712
IRIDIUM 33 DEB          
1 34088U 97051CX  26061.85595723  .00044068  00000+0  37700-2 0  9994
2 34088  86.3872 353.7513 0002184  51.0925   8.9915 14.97405767899382
IRIDIUM 33 DEB          
1 34091U 97051DA  26061.87690660  .00052460  00000+0  54804-2 0  9995
2 34091  86.3434  29.9254 0033780  22.0184 338.2484 14.89021457890567
IRIDIUM 33 DEB          
1 34097U 97051DG  26062.05034942  .00003816  00000+0  12688-2 0  9992
2 34097  86.2024 325.9527 0083685  97.6617 263.4093 14.35490237882717
IRIDIUM 33 DEB          
1 34145U 97051DY  26061.64851036  .00003097  00000+0  90403-3 0  9994
2 34145  86.2097 296.9251 0051626 188.6069 171.4252 14.43044430887904
IRIDIUM 33 DEB          
1 34146U 97051DZ  26062.13875043  .00002871  00000+0  73815-3 0  9991
2 34146  86.2844 314.2841 0026171 322.5575 191.0013 14.49696336892714
IRIDIUM 33 DEB          
1 34159U 97051EN  26061.93136102  .00001741  00000+0  55846-3 0  9997
2 34159  86.3543  14.0372 0029392  27.9383 332.3386 14.38728602891127
IRIDIUM 33 DEB          
1 34350U 97051ES  26062.19556095  .00001395  00000+0  38803-3 0  9995
2 34350  86.3311 327.9093 0019069 229.3754 289.0826 14.45673115894552
IRIDIUM 33 DEB          
1 34366U 97051FJ  26061.89526052  .00006135  00000+0  14196-2 0  9993
2 34366  86.3721  14.4179 0017709 228.3938 190.5534 14.54923809893479
IRIDIUM 33 DEB          
1 34375U 97051FT  26061.28615898  .00001172  00000+0  53504-3 0  9996
2 34375  86.4353 150.6609 0100628 233.3626 188.1539 14.18162190878395
IRIDIUM 33 DEB          
1 34376U 97051FU  26062.15824081  .00009878  00000+0  18569-2 0  9992
2 34376  86.3005 330.3457 0022415 259.2929 100.5760 14.64403201891837
IRIDIUM 33 DEB          
1 34486U 97051GB  26062.20006433  .00036644  00000+0  28089-2 0  9992
2 34486  86.3956 334.7293 0008335 157.4487 355.3173 15.01641796901917
